NORAD_CAT_ID,OBJECT_NAME,OBJECT_TYPE,EPOCH,MEAN_MOTION,ECCENTRICITY,INCLINATION,RA_OF_ASC_NODE,ARG_OF_PERICENTER,MEAN_ANOMALY,BSTAR,MEAN_MOTION_DOT,MEAN_MOTION_DDOT,TLE_LINE0,TLE_LINE1,TLE_LINE2,SEMIMAJOR_AXIS,PERIOD,APOGEE,PERIGEE,DECAYED
51992.0,STARLINK-3643,PAYLOAD,2024-01-02 09:40:35,15.08842694,0.0001778,53.2184,358.278,98.3335,261.7858,9.7626e-05,1.266e-05,0.0,0 STARLINK-3643,1 51992U 22025AN  24002.40318403  .00001266  00000-0  97626-4 0  9997,2 51992  53.2184 358.2780 0001778  98.3335 261.7858 15.08842694102094,6917.872,95.437,540.967,538.507,0.0
51992.0,STARLINK-3643,PAYLOAD,2024-01-03 03:09:50,15.08835689,0.000173,53.2181,355.0061,92.5903,267.5287,1.9278e-05,1.9e-07,0.0,0 STARLINK-3643,1 51992U 22025AN  24003.13183205  .00000019  00000-0  19278-4 0  9990,2 51992  53.2181 355.0061 0001730  92.5903 267.5287 15.08835689102202,6917.894,95.438,540.955,538.562,0.0
51992.0,STARLINK-3643,PAYLOAD,2024-01-03 09:31:22,15.08836618,0.0001757,53.2184,353.8166,94.5397,265.5796,2.1403e-05,5.3e-07,0.0,0 STARLINK-3643,1 51992U 22025AN  24003.39679156  .00000053  00000-0  21403-4 0  9994,2 51992  53.2184 353.8166 0001757  94.5397 265.5796 15.08836618100692,6917.891,95.438,540.971,538.54,0.0
51992.0,STARLINK-3643,PAYLOAD,2024-01-04 07:46:46,15.08843096,0.0001696,53.2184,349.6531,97.6504,262.4681,0.00012883,1.763e-05,0.0,0 STARLINK-3643,1 51992U 22025AN  24004.32414606  .00001763  00000-0  12883-3 0  9995,2 51992  53.2184 349.6531 0001696  97.6504 262.4681 15.08843096102382,6917.871,95.437,540.909,538.563,0.0
51992.0,STARLINK-3643,PAYLOAD,2024-01-05 04:26:47,15.08835206,0.0001718,53.2185,345.7876,94.0448,266.074,4.9068e-05,4.93e-06,0.0,0 STARLINK-3643,1 51992U 22025AN  24005.18527436  .00000493  00000-0  49068-4 0  9991,2 51992  53.2185 345.7876 0001718  94.0448 266.0740 15.08835206102510,6917.895,95.438,540.949,538.572,0.0
51992.0,STARLINK-3643,PAYLOAD,2024-01-05 06:02:10,15.08838461,0.0001698,53.2188,345.4911,84.6025,275.5161,8.4063e-05,1.05e-05,0.0,0 STARLINK-3643,1 51992U 22025AN  24005.25151244  .00001050  00000-0  84063-4 0  9993,2 51992  53.2188 345.4911 0001698  84.6025 275.5161 15.08838461100979,6917.885,95.438,540.925,538.575,0.0
51992.0,STARLINK-3643,PAYLOAD,2024-01-05 21:56:02,15.08837879,0.0001671,53.2183,342.5191,98.3874,261.7308,7.0945e-05,8.41e-06,0.0,0 STARLINK-3643,1 51992U 22025AN  24005.91391329  .00000841  00000-0  70945-4 0  9997,2 51992  53.2183 342.5191 0001671  98.3874 261.7308 15.08837879101071,6917.887,95.438,540.908,538.596,0.0
51992.0,STARLINK-3643,PAYLOAD,2024-01-06 07:28:20,15.08846917,0.0001711,53.219,340.7356,88.4842,271.6347,8.0764e-05,9.98e-06,0.0,0 STARLINK-3643,1 51992U 22025AN  24006.31134782  .00000998  00000-0  80764-4 0  9993,2 51992  53.2190 340.7356 0001711  88.4842 271.6347 15.08846917102686,6917.859,95.437,540.908,538.541,0.0
51992.0,STARLINK-3643,PAYLOAD,2024-01-07 04:08:21,15.08838776,0.00018,53.219,336.8678,83.54,276.5797,-9.929e-07,-3.04e-06,0.0,0 STARLINK-3643,1 51992U 22025AN  24007.17247578 -.00000304  00000-0 -99290-6 0  9995,2 51992  53.2190 336.8678 0001800  83.5400 276.5797 15.08838776102816,6917.884,95.438,540.994,538.504,0.0
51992.0,STARLINK-3643,PAYLOAD,2024-01-07 07:19:08,15.08840977,0.0001978,53.2199,336.2677,75.8333,284.2879,2.4546e-05,1.02e-06,0.0,0 STARLINK-3643,1 51992U 22025AN  24007.30495436  .00000102  00000-0  24546-4 0  9992,2 51992  53.2199 336.2677 0001978  75.8333 284.2879 15.08840977101286,6917.877,95.437,541.111,538.374,0.0
51992.0,STARLINK-3643,PAYLOAD,2024-01-08 02:23:45,15.08848157,0.0001834,53.2185,332.7004,110.3004,249.8186,7.2573e-06,-1.73e-06,0.0,0 STARLINK-3643,1 51992U 22025AN  24008.09982806 -.00000173  00000-0  72573-5 0  9994,2 51992  53.2185 332.7004 0001834 110.3004 249.8186 15.08848157102958,6917.855,95.437,540.989,538.452,0.0
51992.0,STARLINK-3643,PAYLOAD,2024-01-08 07:09:54,15.08849158,0.000174,53.2184,331.8094,102.8687,257.2499,1.7089e-05,-1.6e-07,0.0,0 STARLINK-3643,1 51992U 22025AN  24008.29854683 -.00000016  00000-0  17089-4 0  9993,2 51992  53.2184 331.8094 0001740 102.8687 257.2499 15.08849158101439,6917.852,95.437,540.921,538.514,0.0
51992.0,STARLINK-3643,PAYLOAD,2024-01-09 03:49:55,15.08842982,0.000188,53.2193,327.9428,101.175,258.9454,6.8253e-05,7.98e-06,0.0,0 STARLINK-3643,1 51992U 22025AN  24009.15966927  .00000798  00000-0  68253-4 0  9999,2 51992  53.2193 327.9428 0001880 101.1750 258.9454 15.08842982103118,6917.871,95.437,541.037,538.436,0.0
51992.0,STARLINK-3643,PAYLOAD,2024-01-09 07:00:41,15.08842745,0.0002125,53.2201,327.3504,112.4204,247.7014,6.7619e-05,7.88e-06,0.0,0 STARLINK-3643,1 51992U 22025AN  24009.29214890  .00000788  00000-0  67619-4 0  9993,2 51992  53.2201 327.3504 0002125 112.4204 247.7014 15.08842745101583,6917.872,95.437,541.207,538.267,0.0
51992.0,STARLINK-3643,PAYLOAD,2024-01-09 21:19:10,15.0881902,0.0002356,53.2209,324.6743,117.862,242.2611,0.00023196,3.403e-05,0.0,0 STARLINK-3643,1 51992U 22025AN  24009.88831630  .00003403  00000-0  23196-3 0  9993,2 51992  53.2209 324.6743 0002356 117.8620 242.2611 15.08819020101676,6917.945,95.439,541.439,538.18,0.0
51992.0,STARLINK-3643,PAYLOAD,2024-01-10 06:51:29,15.08836831,0.0002062,53.2194,322.8886,124.6191,235.4996,-6.4007e-07,-2.98e-06,0.0,0 STARLINK-3643,1 51992U 22025AN  24010.28575376 -.00000298  00000-0 -64007-6 0  9991,2 51992  53.2194 322.8886 0002062 124.6191 235.4996 15.08836831103288,6917.89,95.438,541.182,538.329,0.0
51992.0,STARLINK-3643,PAYLOAD,2024-01-11 03:31:29,15.08849496,0.0001582,53.2181,319.0273,108.705,251.4113,7.7379e-05,9.44e-06,0.0,0 STARLINK-3643,1 51992U 22025AN  24011.14686678  .00000944  00000-0  77379-4 0  9995,2 51992  53.2181 319.0273 0001582 108.7050 251.4113 15.08849496103410,6917.851,95.437,540.811,538.622,0.0
51992.0,STARLINK-3643,PAYLOAD,2024-01-11 06:42:15,15.08850661,0.0001613,53.2183,318.4317,111.2887,248.8277,8.9046e-05,1.13e-05,0.0,0 STARLINK-3643,1 51992U 22025AN  24011.27934497  .00001130  00000-0  89046-4 0  9996,2 51992  53.2183 318.4317 0001613 111.2887 248.8277 15.08850661101882,6917.848,95.437,540.829,538.597,0.0
51992.0,STARLINK-3643,PAYLOAD,2024-01-12 03:22:17,15.08843059,0.0001887,53.2187,314.5662,94.6273,265.4935,-1.1226e-05,-4.67e-06,0.0,0 STARLINK-3643,1 51992U 22025AN  24012.14047712 -.00000467  00000-0 -11226-4 0  9997,2 51992  53.2187 314.5662 0001887  94.6273 265.4935 15.08843059103568,6917.871,95.437,541.041,538.431,0.0
51992.0,STARLINK-3643,PAYLOAD,2024-01-12 06:33:03,15.08844813,0.0001487,53.2186,313.9725,87.2863,272.8299,0.00012343,1.677e-05,0.0,0 STARLINK-3643,1 51992U 22025AN  24012.27295284  .00001677  00000-0  12343-3 0  9992,2 51992  53.2186 313.9725 0001487  87.2863 272.8299 15.08844813102034,6917.866,95.437,540.759,538.702,0.0
51992.0,STARLINK-3643,PAYLOAD,2024-01-13 03:13:04,15.08841023,0.0001819,53.2196,310.1017,74.8699,285.2495,5.9367e-05,6.57e-06,0.0,0 STARLINK-3643,1 51992U 22025AN  24013.13408021  .00000657  00000-0  59367-4 0  9998,2 51992  53.2196 310.1017 0001819  74.8699 285.2495 15.08841023103718,6917.877,95.437,541.001,538.484,0.0
51992.0,STARLINK-3643,PAYLOAD,2024-01-13 04:48:27,15.08844506,0.0001646,53.2191,309.8078,90.6158,269.5023,6.7578e-05,7.88e-06,0.0,0 STARLINK-3643,1 51992U 22025AN  24013.20031712  .00000788  00000-0  67578-4 0  9993,2 51992  53.2191 309.8078 0001646  90.6158 269.5023 15.08844506102179,6917.867,95.437,540.87,538.593,0.0
51992.0,STARLINK-3643,PAYLOAD,2024-01-14 04:39:14,15.08847101,0.0001702,53.2193,305.3464,83.2943,276.8242,0.0001034,1.358e-05,0.0,0 STARLINK-3643,1 51992U 22025AN  24014.19391623  .00001358  00000-0  10340-3 0  9990,2 51992  53.2193 305.3464 0001702  83.2943 276.8242 15.08847101103870,6917.859,95.437,540.901,538.546,0.0
51992.0,STARLINK-3643,PAYLOAD,2024-01-14 18:57:43,15.08833973,0.0002035,53.2195,302.6735,78.8864,281.2357,7.7289e-05,9.42e-06,0.0,0 STARLINK-3643,1 51992U 22025AN  24014.79008843  .00000942  00000-0  77289-4 0  9999,2 51992  53.2195 302.6735 0002035  78.8864 281.2357 15.08833973103964,6917.899,95.438,541.172,538.356,0.0
51992.0,STARLINK-3643,PAYLOAD,2024-01-15 01:19:15,15.08846052,0.0001916,53.2191,301.4879,77.0752,283.0454,3.5185e-05,2.72e-06,0.0,0 STARLINK-3643,1 51992U 22025AN  24015.05504230  .00000272  00000-0  35185-4 0  9995,2 51992  53.2191 301.4879 0001916  77.0752 283.0454 15.08846052104006,6917.862,95.437,541.052,538.401,0.0
51992.0,STARLINK-3643,PAYLOAD,2024-01-16 04:20:48,15.08852787,0.0001632,53.219,296.4249,99.2472,260.8705,9.1519e-05,1.169e-05,0.0,0 STARLINK-3643,1 51992U 22025AN  24016.18111233  .00001169  00000-0  91519-4 0  9996,2 51992  53.2190 296.4249 0001632  99.2472 260.8705 15.08852787104171,6917.841,95.437,540.835,538.577,0.0
51992.0,STARLINK-3643,PAYLOAD,2024-01-16 21:50:03,15.08845884,0.0001827,53.2176,293.151,125.9178,234.1984,-6.6503e-05,-1.347e-05,0.0,0 STARLINK-3643,1 51992U 22025AN  24016.90975919 -.00001347  00000-0 -66503-4 0  9990,2 51992  53.2176 293.1510 0001827 125.9178 234.1984 15.08845884102739,6917.862,95.437,540.991,538.464,0.0
51992.0,STARLINK-3643,PAYLOAD,2024-01-17 01:00:49,15.08840379,0.0001531,53.2186,292.5648,86.1391,273.9777,1.0182e-05,-1.26e-06,0.0,0 STARLINK-3643,1 51992U 22025AN  24017.04224406 -.00000126  00000-0  10182-4 0  9999,2 51992  53.2186 292.5648 0001531  86.1391 273.9777 15.08840379104302,6917.879,95.438,540.803,538.685,0.0
51992.0,STARLINK-3643,PAYLOAD,2024-01-17 21:40:50,15.08839701,0.0001603,53.2183,288.6946,116.0427,244.073,-3.0327e-05,-7.71e-06,0.0,0 STARLINK-3643,1 51992U 22025AN  24017.90336531 -.00000771  00000-0 -30327-4 0  9997,2 51992  53.2183 288.6946 0001603 116.0427 244.0730 15.08839701102885,6917.881,95.438,540.855,538.637,0.0
51992.0,STARLINK-3643,PAYLOAD,2024-01-18 00:51:36,15.08843282,0.0001642,53.2186,288.1018,118.2781,241.8377,-1.1767e-05,-4.75e-06,0.0,0 STARLINK-3643,1 51992U 22025AN  24018.03584263 -.00000475  00000-0 -11767-4 0  9997,2 51992  53.2186 288.1018 0001642 118.2781 241.8377 15.08843282102907,6917.87,95.437,540.871,538.599,0.0
